[{"OBJECT_NAME":"STARLINK-2474","OBJECT_ID":"2021-027AS","EPOCH":"2026-03-09T12:52:01.438464","MEAN_MOTION":15.30208823,"ECCENTRICITY":0.00010965,"INCLINATION":53.1606,"RA_OF_ASC_NODE":168.5073,"ARG_OF_PERICENTER":81.3612,"MEAN_ANOMALY":278.7513,"EPHEMERIS_TYPE":0,"CLASSIFICATION_TYPE":"U","NORAD_CAT_ID":48132,"ELEMENT_SET_NO":999,"REV_AT_EPOCH":27244,"BSTAR":0.00013506435,"MEAN_MOTION_DOT":3.644e-5,"MEAN_MOTION_DDOT":0},{"OBJECT_NAME":"SCS-01 M","OBJECT_ID":"2025-100M","EPOCH":"2026-03-09T23:50:15.541152","MEAN_MOTION":15.31880861,"ECCENTRICITY":0.00078021,"INCLINATION":97.3725,"RA_OF_ASC_NODE":145.6908,"ARG_OF_PERICENTER":292.3826,"MEAN_ANOMALY":67.6588,"EPHEMERIS_TYPE":0,"CLASSIFICATION_TYPE":"U","NORAD_CAT_ID":63993,"ELEMENT_SET_NO":999,"REV_AT_EPOCH":4565,"BSTAR":0.0012010051,"MEAN_MOTION_DOT":0.00037061,"MEAN_MOTION_DDOT":0}]
